OBJECT_NAME,OBJECT_ID,EPOCH,MEAN_MOTION,ECCENTRICITY,INCLINATION,RA_OF_ASC_NODE,ARG_OF_PERICENTER,MEAN_ANOMALY,EPHEMERIS_TYPE,CLASSIFICATION_TYPE,NORAD_CAT_ID,ELEMENT_SET_NO,REV_AT_EPOCH,BSTAR,MEAN_MOTION_DOT,MEAN_MOTION_DDOT
GALAXY 3C (G-3C),2002-030A,2026-06-08T21:29:09.999168,1.00271734,.0001786,3.7087,78.0852,32.4950,14.1421,0,U,27445,999,4641,0,-.136E-5,0
INTELSAT 906 (IS-906),2002-041A,2026-06-09T00:44:08.844288,1.00271266,.0004651,5.7831,73.0205,358.8696,260.6878,0,U,27513,999,8694,0,.29E-6,0
NIMIQ 2,2002-062A,2026-06-08T15:02:17.280960,1.00271904,.0005678,9.4258,56.9898,17.4325,298.9696,0,U,27632,999,4409,0,-.56E-6,0
USA 167,2003-008A,2026-06-09T02:51:22.287744,1.00273864,.0003872,10.9447,43.4790,314.1374,181.0057,0,U,27691,999,669,0,.15E-6,0
USA 169 (MILSTAR-2 4),2003-012A,2026-06-08T22:39:29.757024,1.00270335,.0100946,12.3366,29.9065,8.8670,350.5504,0,U,27711,999,3286,0,-.219E-5,0
ASIASAT 4,2003-014A,2026-06-08T21:03:51.806016,1.00272432,.0002929,4.6841,75.8490,4.4207,280.4984,0,U,27718,999,4521,0,-.206E-5,0
HELLAS-SAT 2,2003-020A,2026-06-09T02:12:38.806848,1.00271392,.0002628,7.3336,67.9800,9.6934,202.9523,0,U,27811,999,4276,0,-.69E-6,0
THURAYA-2,2003-026A,2026-06-08T18:45:00.000000,1.00273078,.0003153,8.8257,32.0302,6.3511,184.0331,0,U,27825,999,8426,0,.137E-5,0
OPTUS C1,2003-028B,2026-06-08T13:50:58.398720,1.00273783,.0005718,6.8672,69.5133,7.3338,183.5675,0,U,27831,999,5297,0,-.136E-5,0
USA 170,2003-040A,2026-06-08T22:17:58.356960,1.00277144,.0001887,10.4821,48.0247,33.6399,174.4630,0,U,27875,999,3291,0,.139E-5,0
GALAXY 13 (HORIZONS-1),2003-044A,2026-06-09T02:21:33.531264,1.00273590,.0002103,1.3993,83.9575,350.0984,68.8041,0,U,27954,999,4649,0,.149E-5,0
YAMAL 202,2003-053A,2026-06-08T14:09:32.133600,1.00273032,.00033428,6.3225,71.0410,353.2483,208.6669,0,U,28089,999,8261,0,-.65E-6,0
UFO 11 (USA 174),2003-057A,2026-06-08T18:14:00.583872,1.00274079,.000255,8.9350,33.8729,44.5000,167.8303,0,U,28117,999,8236,0,-.93E-6,0
USA 176 (DSP 22),2004-004A,2026-06-09T01:06:57.295008,1.00407916,.0001128,12.0508,26.1284,297.6121,259.2573,0,U,28158,999,3285,0,-.284E-5,0
ABS-4 (MOBISAT-1),2004-007A,2026-06-08T20:33:58.110048,1.00271458,.0005162,6.0215,72.1080,3.1892,191.3837,0,U,28184,999,5225,0,.55E-6,0
INTELSAT 10-02,2004-022A,2026-06-09T01:21:21.231072,1.00269264,.0000525,0.0151,336.1514,195.6343,104.9809,0,U,28358,999,8047,0,.5E-7,0
ANIK F2,2004-027A,2026-06-09T02:32:39.964704,1.00271781,.0004281,3.2651,79.5545,3.3297,101.6426,0,U,28378,999,4118,0,-.33E-6,0
AMC-15,2004-041A,2026-06-09T02:34:17.308992,1.00272015,.0002298,0.0298,304.3390,138.7285,107.9492,0,U,28446,999,7922,0,-.72E-6,0
NSS-10,2005-003A,2026-06-09T04:07:14.384064,1.00271221,.0002925,6.4285,70.5501,8.3699,202.9949,0,U,28526,999,5307,0,-.236E-5,0
INMARSAT 4-F1,2005-009A,2026-06-08T19:02:18.768192,1.00271982,.0002707,5.1558,42.7387,38.2720,279.8694,0,U,28628,999,7758,0,.47E-6,0
DIRECTV 8,2005-019A,2026-06-09T02:30:17.693280,1.00271609,.0002949,0.0178,9.8409,71.8033,94.3671,0,U,28659,999,7699,0,.18E-6,0
GALAXY 28 (G-28),2005-022A,2026-06-09T03:29:38.633856,1.00272331,.0002845,3.2789,79.0295,354.6455,209.1556,0,U,28702,999,5189,0,-.184E-5,0
THAICOM 4,2005-028A,2026-06-09T01:55:30.772128,1.00272131,.0001874,0.2234,86.0291,345.7748,334.0447,0,U,28786,999,5216,0,-.346E-5,0
ANIK F1R,2005-036A,2026-06-08T21:25:17.870016,1.00272510,.0004278,4.2905,76.6819,5.2871,29.3599,0,U,28868,999,4637,0,-.59E-6,0
SYRACUSE 3A,2005-041B,2026-06-08T23:52:10.020288,1.00271388,.0003092,4.6228,75.9376,340.3728,245.7398,0,U,28885,999,7566,0,.145E-5,0
INMARSAT 4-F2,2005-044A,2026-06-09T00:19:37.388352,1.00273314,.0003031,5.0831,43.7030,33.6300,328.4612,0,U,28899,999,7544,0,-.245E-5,0
METEOSAT-9 (MSG-2),2005-049B,2026-06-08T18:44:00.008160,1.00268863,.00017,9.3415,54.2486,350.9221,178.6781,0,U,28912,999,691,0,.137E-5,0
EUTELSAT 174A,2005-052A,2026-06-08T14:12:31.847328,1.00269812,.0006359,4.1968,76.6319,1.4418,206.0255,0,U,28924,999,5224,0,.24E-6,0
ECHOSTAR 10,2006-003A,2026-06-09T02:32:54.942144,1.00271326,.0001987,0.0181,1.7196,43.9647,139.8574,0,U,28935,999,7438,0,-.39E-6,0
SPAINSAT,2006-007A,2026-06-08T08:53:53.073024,1.00272401,.0004886,0.5393,86.6925,349.5440,283.8269,0,U,28945,999,7413,0,-.201E-5,0
JCSAT-5A,2006-010A,2026-06-09T00:16:37.673760,1.00269595,.0002075,1.0872,84.3142,12.6471,296.6283,0,U,29045,999,7368,0,-.311E-5,0
ASTRA 1KR,2006-012A,2026-06-09T03:09:41.554080,1.00272674,.000347,0.4520,83.2052,353.5721,247.1591,0,U,29055,999,4561,0,.136E-5,0
